ONEWEB-0624             
1 55165U 23004AB  24017.89444341 -.00000371  00000+0 -10667-2 0  9996
2 55165  87.9026 165.9673 0001229 106.7867 253.3397 13.12445239 52454
ONEWEB-0625             
1 55166U 23004AC  24017.92003228 -.00000021  00000+0 -86778-4 0  9996
2 55166  87.9215 181.1225 0001530 109.9401 250.1895 13.17650904 51529
ONEWEB-0626             
1 55167U 23004AD  24018.51803712  .00000047  00000+0  87553-4 0  9997
2 55167  87.9217 181.0059 0001740  75.2674 284.8650 13.17651661 51609
ONEWEB-0627             
1 55168U 23004AE  24017.89947286  .00000093  00000+0  20621-3 0  9996
2 55168  87.9215 181.1290 0000869  64.0546 296.0675 13.17648649 51526
ONEWEB-0628             
1 55169U 23004AF  24017.87220560  .00000189  00000+0  49123-3 0  9998
2 55169  87.9024 165.9646 0000901 110.6075 249.5150 13.12440074 52431
ONEWEB-0629             
1 55170U 23004AG  24017.89470322  .00000104  00000+0  23509-3 0  9992
2 55170  87.9211 181.1270 0001069 115.5364 244.5878 13.17650772 51529
ONEWEB-0631             
1 55171U 23004AH  24017.87133134  .00000079  00000+0  16798-3 0  9991
2 55171  87.9245 150.7704 0001614  76.3640 283.7672 13.18685154 53520
ONEWEB-0709             
1 55172U 23004AJ  24017.97541746 -.00000481  00000+0 -13927-2 0  9994
2 55172  87.8962 196.2495 0002010  72.8411 287.2936 13.11412957 50381
